IRIDIUM 112             
1 41925U 17003J   25326.61873697  .00000289  00000+0  96126-4 0  9993
2 41925  86.3993 174.6140 0002114  82.8258 277.3178 14.34217809463664
IRIDIUM 111             
1 41926U 17003K   25326.67582003  .00000286  00000+0  94924-4 0  9999
2 41926  86.3996 174.6562 0001938  86.8109 273.3308 14.34216231463656
IRIDIUM 113             
1 42803U 17039A   25326.72554431  .00000302  00000+0  10066-3 0  9996
2 42803  86.3988  48.4595 0002054  91.6685 268.4746 14.34216768441594
IRIDIUM 123             
1 42804U 17039B   25326.76703306  .00000344  00000+0  11595-3 0  9992
2 42804  86.3961  79.9283 0001694  97.9141 262.2247 14.34217606440368
IRIDIUM 120             
1 42805U 17039C   25326.78898238  .00000370  00000+0  12508-3 0  9998
2 42805  86.3978  48.2424 0002181 106.1139 254.0297 14.34217388441592
IRIDIUM 115             
1 42806U 17039D   25326.79001155  .00000461  00000+0  13114-3 0  9999
2 42806  86.4516  48.3425 0001776 108.8398 251.2996 14.43280240444493
IRIDIUM 118             
1 42807U 17039E   25326.79875372  .00000343  00000+0  11545-3 0  9995
2 42807  86.3959  79.9140 0001986  90.3918 269.7505 14.34215431440366
IRIDIUM 117             
1 42808U 17039F   25326.74800561  .00000349  00000+0  11742-3 0  9994
2 42808  86.3960  79.8948 0001827  95.0366 265.1038 14.34217609440389
